[{"OBJECT_NAME":"HULIANWANG DIGUI-129","OBJECT_ID":"2025-311B","EPOCH":"2026-03-15T07:06:24.405984","MEAN_MOTION":13.29330867,"ECCENTRICITY":7.96e-6,"INCLINATION":50.0059,"RA_OF_ASC_NODE":92.3257,"ARG_OF_PERICENTER":355.6363,"MEAN_ANOMALY":4.4508,"EPHEMERIS_TYPE":0,"CLASSIFICATION_TYPE":"U","NORAD_CAT_ID":67237,"ELEMENT_SET_NO":999,"REV_AT_EPOCH":1085,"BSTAR":0.00010376647,"MEAN_MOTION_DOT":-7.6e-7,"MEAN_MOTION_DDOT":0},{"OBJECT_NAME":"HULIANWANG DIGUI-130","OBJECT_ID":"2025-311C","EPOCH":"2026-03-15T06:30:19.736928","MEAN_MOTION":13.29331166,"ECCENTRICITY":1.145e-5,"INCLINATION":50.0043,"RA_OF_ASC_NODE":92.8344,"ARG_OF_PERICENTER":349.591,"MEAN_ANOMALY":10.496,"EPHEMERIS_TYPE":0,"CLASSIFICATION_TYPE":"U","NORAD_CAT_ID":67238,"ELEMENT_SET_NO":999,"REV_AT_EPOCH":1084,"BSTAR":0.00011667353,"MEAN_MOTION_DOT":-7.0e-7,"MEAN_MOTION_DDOT":0},{"OBJECT_NAME":"HULIANWANG DIGUI-131","OBJECT_ID":"2025-311D","EPOCH":"2026-03-15T06:42:21.506976","MEAN_MOTION":13.29331096,"ECCENTRICITY":1.069e-5,"INCLINATION":50.0039,"RA_OF_ASC_NODE":92.8736,"ARG_OF_PERICENTER":356.4319,"MEAN_ANOMALY":3.6552,"EPHEMERIS_TYPE":0,"CLASSIFICATION_TYPE":"U","NORAD_CAT_ID":67239,"ELEMENT_SET_NO":999,"REV_AT_EPOCH":1084,"BSTAR":0.00011328116,"MEAN_MOTION_DOT":-7.1e-7,"MEAN_MOTION_DDOT":0},{"OBJECT_NAME":"HULIANWANG DIGUI-132","OBJECT_ID":"2025-311E","EPOCH":"2026-03-15T07:54:32.120352","MEAN_MOTION":13.29331121,"ECCENTRICITY":1.241e-5,"INCLINATION":50.005,"RA_OF_ASC_NODE":92.4852,"ARG_OF_PERICENTER":354.7883,"MEAN_ANOMALY":5.2988,"EPHEMERIS_TYPE":0,"CLASSIFICATION_TYPE":"U","NORAD_CAT_ID":67240,"ELEMENT_SET_NO":999,"REV_AT_EPOCH":1085,"BSTAR":0.00012709483,"MEAN_MOTION_DOT":-6.5e-7,"MEAN_MOTION_DDOT":0},{"OBJECT_NAME":"HULIANWANG DIGUI-133","OBJECT_ID":"2025-311F","EPOCH":"2026-03-15T07:30:28.060128","MEAN_MOTION":13.29331117,"ECCENTRICITY":1.012e-5,"INCLINATION":50.0093,"RA_OF_ASC_NODE":92.4329,"ARG_OF_PERICENTER":8.1045,"MEAN_ANOMALY":351.9828,"EPHEMERIS_TYPE":0,"CLASSIFICATION_TYPE":"U","NORAD_CAT_ID":67241,"ELEMENT_SET_NO":999,"REV_AT_EPOCH":1085,"BSTAR":0.00013727733,"MEAN_MOTION_DOT":-6.0e-7,"MEAN_MOTION_DDOT":0},{"OBJECT_NAME":"HULIANWANG DIGUI-134","OBJECT_ID":"2025-311G","EPOCH":"2026-03-15T07:42:29.576160","MEAN_MOTION":13.29331079,"ECCENTRICITY":9.54e-6,"INCLINATION":50.0024,"RA_OF_ASC_NODE":92.4243,"ARG_OF_PERICENTER":355.9673,"MEAN_ANOMALY":4.1198,"EPHEMERIS_TYPE":0,"CLASSIFICATION_TYPE":"U","NORAD_CAT_ID":67242,"ELEMENT_SET_NO":999,"REV_AT_EPOCH":1085,"BSTAR":0.00012007496,"MEAN_MOTION_DOT":-6.8e-7,"MEAN_MOTION_DDOT":0},{"OBJECT_NAME":"HULIANWANG DIGUI-135","OBJECT_ID":"2025-311H","EPOCH":"2026-03-15T06:18:17.911584","MEAN_MOTION":13.29331149,"ECCENTRICITY":1.018e-5,"INCLINATION":50.001,"RA_OF_ASC_NODE":92.7685,"ARG_OF_PERICENTER":356.7303,"MEAN_ANOMALY":3.3569,"EPHEMERIS_TYPE":0,"CLASSIFICATION_TYPE":"U","NORAD_CAT_ID":67243,"ELEMENT_SET_NO":999,"REV_AT_EPOCH":1084,"BSTAR":0.00013061199,"MEAN_MOTION_DOT":-6.3e-7,"MEAN_MOTION_DDOT":0},{"OBJECT_NAME":"HULIANWANG DIGUI-136","OBJECT_ID":"2025-311J","EPOCH":"2026-03-15T05:30:10.770048","MEAN_MOTION":13.29331375,"ECCENTRICITY":7.75e-6,"INCLINATION":50.0082,"RA_OF_ASC_NODE":92.6508,"ARG_OF_PERICENTER":355.5656,"MEAN_ANOMALY":4.5216,"EPHEMERIS_TYPE":0,"CLASSIFICATION_TYPE":"U","NORAD_CAT_ID":67244,"ELEMENT_SET_NO":999,"REV_AT_EPOCH":1084,"BSTAR":9.7792078e-5,"MEAN_MOTION_DOT":-7.9e-7,"MEAN_MOTION_DDOT":0},{"OBJECT_NAME":"HULIANWANG DIGUI-137","OBJECT_ID":"2026-007A","EPOCH":"2026-03-14T10:19:39.095040","MEAN_MOTION":13.30018797,"ECCENTRICITY":5.278e-5,"INCLINATION":50.0077,"RA_OF_ASC_NODE":65.6735,"ARG_OF_PERICENTER":51.2053,"MEAN_ANOMALY":308.8867,"EPHEMERIS_TYPE":0,"CLASSIFICATION_TYPE":"U","NORAD_CAT_ID":67435,"ELEMENT_SET_NO":999,"REV_AT_EPOCH":818,"BSTAR":0.00013687884,"MEAN_MOTION_DOT":-6.0e-7,"MEAN_MOTION_DDOT":0},{"OBJECT_NAME":"HULIANWANG DIGUI-138","OBJECT_ID":"2026-007B","EPOCH":"2026-03-14T07:07:17.470272","MEAN_MOTION":13.30164041,"ECCENTRICITY":0.0001216,"INCLINATION":50.0055,"RA_OF_ASC_NODE":66.2861,"ARG_OF_PERICENTER":216.6588,"MEAN_ANOMALY":143.4201,"EPHEMERIS_TYPE":0,"CLASSIFICATION_TYPE":"U","NORAD_CAT_ID":67436,"ELEMENT_SET_NO":999,"REV_AT_EPOCH":816,"BSTAR":0.00012673789,"MEAN_MOTION_DOT":-6.5e-7,"MEAN_MOTION_DDOT":0},{"OBJECT_NAME":"HULIANWANG DIGUI-139","OBJECT_ID":"2026-007C","EPOCH":"2026-03-14T21:20:52.310112","MEAN_MOTION":13.29814572,"ECCENTRICITY":6.736e-5,"INCLINATION":50.0085,"RA_OF_ASC_NODE":64.0749,"ARG_OF_PERICENTER":332.2978,"MEAN_ANOMALY":27.7858,"EPHEMERIS_TYPE":0,"CLASSIFICATION_TYPE":"U","NORAD_CAT_ID":67437,"ELEMENT_SET_NO":999,"REV_AT_EPOCH":824,"BSTAR":0.00015578076,"MEAN_MOTION_DOT":-5.1e-7,"MEAN_MOTION_DDOT":0},{"OBJECT_NAME":"HULIANWANG DIGUI-140","OBJECT_ID":"2026-007D","EPOCH":"2026-03-14T12:43:46.776000","MEAN_MOTION":13.29812326,"ECCENTRICITY":9.29e-5,"INCLINATION":50.0036,"RA_OF_ASC_NODE":65.5218,"ARG_OF_PERICENTER":3.4892,"MEAN_ANOMALY":356.5986,"EPHEMERIS_TYPE":0,"CLASSIFICATION_TYPE":"U","NORAD_CAT_ID":67438,"ELEMENT_SET_NO":999,"REV_AT_EPOCH":819,"BSTAR":0.00014883793,"MEAN_MOTION_DOT":-5.5e-7,"MEAN_MOTION_DDOT":0},{"OBJECT_NAME":"HULIANWANG DIGUI-141","OBJECT_ID":"2026-007E","EPOCH":"2026-03-14T17:20:31.410528","MEAN_MOTION":13.30349855,"ECCENTRICITY":4.537e-5,"INCLINATION":50.0057,"RA_OF_ASC_NODE":64.5335,"ARG_OF_PERICENTER":336.4684,"MEAN_ANOMALY":23.6168,"EPHEMERIS_TYPE":0,"CLASSIFICATION_TYPE":"U","NORAD_CAT_ID":67439,"ELEMENT_SET_NO":999,"REV_AT_EPOCH":822,"BSTAR":0.00014916947,"MEAN_MOTION_DOT":-5.4e-7,"MEAN_MOTION_DDOT":0},{"OBJECT_NAME":"HULIANWANG DIGUI-142","OBJECT_ID":"2026-007F","EPOCH":"2026-03-11T22:31:03.754560","MEAN_MOTION":13.33903222,"ECCENTRICITY":0.0002249,"INCLINATION":50.0117,"RA_OF_ASC_NODE":74.5259,"ARG_OF_PERICENTER":344.1947,"MEAN_ANOMALY":15.8856,"EPHEMERIS_TYPE":0,"CLASSIFICATION_TYPE":"U","NORAD_CAT_ID":67440,"ELEMENT_SET_NO":999,"REV_AT_EPOCH":785,"BSTAR":-1.6308394e-5,"MEAN_MOTION_DOT":-1.34e-6,"MEAN_MOTION_DDOT":0},{"OBJECT_NAME":"HULIANWANG DIGUI-143","OBJECT_ID":"2026-007G","EPOCH":"2026-03-14T11:32:30.806304","MEAN_MOTION":13.30811975,"ECCENTRICITY":0.0001046,"INCLINATION":50.0098,"RA_OF_ASC_NODE":65.2919,"ARG_OF_PERICENTER":302.8657,"MEAN_ANOMALY":57.2115,"EPHEMERIS_TYPE":0,"CLASSIFICATION_TYPE":"U","NORAD_CAT_ID":67441,"ELEMENT_SET_NO":999,"REV_AT_EPOCH":819,"BSTAR":0.0001624975,"MEAN_MOTION_DOT":-4.7e-7,"MEAN_MOTION_DDOT":0},{"OBJECT_NAME":"HULIANWANG DIGUI-144","OBJECT_ID":"2026-007H","EPOCH":"2026-03-12T10:43:43.746240","MEAN_MOTION":13.33830953,"ECCENTRICITY":0.00042448,"INCLINATION":49.9552,"RA_OF_ASC_NODE":72.5418,"ARG_OF_PERICENTER":224.4075,"MEAN_ANOMALY":135.6458,"EPHEMERIS_TYPE":0,"CLASSIFICATION_TYPE":"U","NORAD_CAT_ID":67442,"ELEMENT_SET_NO":999,"REV_AT_EPOCH":792,"BSTAR":0.00012623093,"MEAN_MOTION_DOT":-6.3e-7,"MEAN_MOTION_DDOT":0}]
