HULIANWANG DIGUI-129    
1 67237U 25311B   26074.29611581 -.00000076  00000+0  10377-3 0  9993
2 67237  50.0059  92.3257 0000079 355.6363   4.4508 13.29330867 10858
HULIANWANG DIGUI-130    
1 67238U 25311C   26074.27106177 -.00000070  00000+0  11667-3 0  9999
2 67238  50.0043  92.8344 0000114 349.5910  10.4960 13.29331166 10845
HULIANWANG DIGUI-131    
1 67239U 25311D   26074.27941559 -.00000071  00000+0  11328-3 0  9996
2 67239  50.0039  92.8736 0000106 356.4319   3.6552 13.29331096 10840
HULIANWANG DIGUI-132    
1 67240U 25311E   26074.32953843 -.00000065  00000+0  12709-3 0  9990
2 67240  50.0050  92.4852 0000124 354.7883   5.2988 13.29331121 10858
HULIANWANG DIGUI-133    
1 67241U 25311F   26074.31282477 -.00000060  00000+0  13728-3 0  9995
2 67241  50.0093  92.4329 0000101   8.1045 351.9828 13.29331117 10859
HULIANWANG DIGUI-134    
1 67242U 25311G   26074.32117565 -.00000068  00000+0  12007-3 0  9999
2 67242  50.0024  92.4243 0000095 355.9673   4.1198 13.29331079 10855
HULIANWANG DIGUI-135    
1 67243U 25311H   26074.26270731 -.00000063  00000+0  13061-3 0  9994
2 67243  50.0010  92.7685 0000101 356.7303   3.3569 13.29331149 10841
HULIANWANG DIGUI-136    
1 67244U 25311J   26074.22929132 -.00000079  00000+0  97792-4 0  9998
2 67244  50.0082  92.6508 0000077 355.5656   4.5216 13.29331375 10847
HULIANWANG DIGUI-137    
1 67435U 26007A   26073.43031360 -.00000060  00000+0  13688-3 0  9993
2 67435  50.0077  65.6735 0000527  51.2053 308.8867 13.30018797  8184
HULIANWANG DIGUI-138    
1 67436U 26007B   26073.29672998 -.00000065  00000+0  12674-3 0  9995
2 67436  50.0055  66.2861 0001216 216.6588 143.4201 13.30164041  8161
HULIANWANG DIGUI-139    
1 67437U 26007C   26073.88949433 -.00000051  00000+0  15578-3 0  9993
2 67437  50.0085  64.0749 0000673 332.2978  27.7858 13.29814572  8240
HULIANWANG DIGUI-140    
1 67438U 26007D   26073.53040250 -.00000055  00000+0  14884-3 0  9998
2 67438  50.0036  65.5218 0000929   3.4892 356.5986 13.29812326  8194
HULIANWANG DIGUI-141    
1 67439U 26007E   26073.72258577 -.00000054  00000+0  14917-3 0  9999
2 67439  50.0057  64.5335 0000453 336.4684  23.6168 13.30349855  8229
HULIANWANG DIGUI-142    
1 67440U 26007F   26070.93823790 -.00000134  00000+0 -16308-4 0  9993
2 67440  50.0117  74.5259 0002249 344.1947  15.8856 13.33903222  7859
HULIANWANG DIGUI-143    
1 67441U 26007G   26073.48091211 -.00000047  00000+0  16250-3 0  9999
2 67441  50.0098  65.2919 0001046 302.8657  57.2115 13.30811975  8197
HULIANWANG DIGUI-144    
1 67442U 26007H   26071.44703410 -.00000063  00000+0  12623-3 0  9993
2 67442  49.9552  72.5418 0004244 224.4075 135.6458 13.33830953  7922
